ONEWEB-0275             
1 48993U 21060AC  25270.50793752  .00000034  00000+0  55424-4 0  9996
2 48993  87.8966 281.1224 0001741  89.8472 270.2859 13.16594865204995
ONEWEB-0276             
1 48994U 21060AD  25270.54117320 -.00000008  00000+0 -54658-4 0  9993
2 48994  87.8969 281.1138 0001878  97.7983 262.3361 13.16595905205019
ONEWEB-0277             
1 48995U 21060AE  25270.55358489  .00000163  00000+0  39344-3 0  9992
2 48995  87.8960 281.1429 0001610  89.6454 270.4862 13.16641589205006
ONEWEB-0278             
1 48996U 21060AF  25270.54434950  .00000024  00000+0  29064-4 0  9995
2 48996  87.8968 281.1098 0002065  95.2579 264.8787 13.16592625205136
ONEWEB-0279             
1 48997U 21060AG  25270.55226440  .00000117  00000+0  27118-3 0  9990
2 48997  87.8968 281.1035 0001505  91.7783 268.3520 13.16593888205062
ONEWEB-0280             
1 48998U 21060AH  25270.56732074  .00000095  00000+0  21447-3 0  9991
2 48998  87.8967 281.1086 0001821 102.2488 257.8847 13.16594124205002
ONEWEB-0281             
1 48999U 21060AJ  25270.04088584  .00000026  00000+0  34260-4 0  9997
2 48999  87.8970 281.2110 0001818  85.1111 275.0228 13.16594736205008
ONEWEB-0282             
1 49000U 21060AK  25270.07094761 -.00000027  00000+0 -10464-3 0  9990
2 49000  87.8969 281.2146 0001752  97.3272 262.8058 13.16595676204984
